      2.10          N: GNSS NAV DATA                        RINEX VERSION / TYPE
fic2rin                                 11/28/2023 00:17:52 PGM / RUN BY / DATE
                                                            END OF HEADER
8  23 11 27  1 59 44.0 -.154050998390D-03 -.181898940355D-11  .000000000000D+00
     .420000000000D+02  .107062500000D+03  .497485007962D-08  .219440876767D+01
     .556372106075D-05  .895815691911D-02  .787898898125D-06  .515378787422D+04
     .935840000000D+05 -.244006514549D-06 -.208192744109D+01  .633299350739D-07
     .955862748366D+00  .362593750000D+03  .280165265619D+00 -.856214236188D-08
     .294655130712D-09  .100000000000D+01  .229000000000D+04  .000000000000D+00
     .240000000000D+01  .000000000000D+00  .512227416039D-08  .420000000000D+02
     .864000000000D+05  .400000000000D+01
31 23 11 27 18  0  0.0 -.226115342230D-03 -.341060513165D-12  .000000000000D+00
     .880000000000D+02 -.190312500000D+02  .504735309966D-08  .650176765672D+00
    -.774860382080D-06  .106210889062D-01  .700727105141D-05  .515364438629D+04
     .151200000000D+06 -.651925802231D-07  .215938566767D+01  .132247805595D-06
     .954076063109D+00  .241156250000D+03  .630493306783D+00 -.821998525252D-08
    -.618954353362D-09  .100000000000D+01  .229000000000D+04  .000000000000D+00
     .240000000000D+01  .000000000000D+00 -.135041773319D-07  .880000000000D+02
     .144000000000D+06  .400000000000D+01
24 23 11 27 18  0  0.0 -.381017103791D-03 -.864019966684D-11  .000000000000D+00
     .980000000000D+02 -.215000000000D+02  .545201281250D-08  .254057879481D+01
    -.128708779812D-05  .149138763081D-01  .621564686298D-05  .515361726379D+04
     .151200000000D+06  .167638063431D-07  .204474633212D+01 -.257045030594D-06
     .933583364752D+00  .244312500000D+03  .947070540489D+00 -.809069415274D-08
    -.428589281035D-09  .100000000000D+01  .229000000000D+04  .000000000000D+00
     .240000000000D+01  .000000000000D+00  .232830643654D-08  .980000000000D+02
     .144000000000D+06  .400000000000D+01
29 23 11 27 18  0  0.0 -.610087532550D-03  .227373675443D-12  .000000000000D+00
     .103000000000D+03  .101750000000D+03  .439411160381D-08 -.201083335288D+01
     .519491732121D-05  .251844502054D-02  .129453837872D-05  .515368296432D+04
     .151200000000D+06 -.102445483208D-06 -.197592681673D+01 -.372529029846D-08
     .973832660588D+00  .360968750000D+03  .256889350255D+01 -.827713048999D-08
     .156435087578D-09  .100000000000D+01  .229000000000D+04  .000000000000D+00
     .340000000000D+01  .000000000000D+00 -.102445483208D-07  .103000000000D+03
     .144000000000D+06  .400000000000D+01
30 23 11 27 18  0  0.0 -.463689211756D-03  .409272615798D-11  .000000000000D+00
     .670000000000D+02 -.165000000000D+02  .554451666566D-08  .140863608262D+01
    -.771135091782D-06  .660689210054D-02  .689178705215D-05  .515372238159D+04
     .151200000000D+06 -.279396772385D-07  .214198239922D+01  .145286321640D-06
     .935157531899D+00  .235406250000D+03 -.255354006613D+01 -.842713673836D-08
    -.548594279725D-09  .100000000000D+01  .229000000000D+04  .000000000000D+00
     .240000000000D+01  .000000000000D+00  .372529029846D-08  .670000000000D+02
     .144000000000D+06  .400000000000D+01
22 23 11 27 18  0  0.0  .761607661843D-04 -.693489710102D-11  .000000000000D+00
     .890000000000D+02  .132187500000D+03  .414231540121D-08 -.135682321080D+01
     .677444040775D-05  .149458377855D-01  .109914690256D-04  .515374077606D+04
     .151200000000D+06 -.372529029846D-06 -.300834517415D+01  .465661287308D-07
     .963187623076D+00  .173531250000D+03 -.116118574679D+01 -.791318675885D-08
    -.262868092368D-09  .100000000000D+01  .229000000000D+04  .000000000000D+00
     .340000000000D+01  .000000000000D+00 -.111758708954D-07  .890000000000D+02
     .144000000000D+06  .400000000000D+01
15 23 11 27 18  0  0.0  .101343728602D-03  .375166564481D-11  .000000000000D+00
     .580000000000D+02  .143437500000D+02  .526021910924D-08 -.296597078793D+01
     .482425093651D-06  .154565474950D-01  .745244324207D-05  .515356818581D+04
     .151200000000D+06  .268220901489D-06  .942930524750D+00 -.124797224998D-06
     .933568697535D+00  .218281250000D+03  .127564588658D+01 -.797676083554D-08
     .706457998240D-09  .100000000000D+01  .229000000000D+04  .000000000000D+00
     .240000000000D+01  .000000000000D+00 -.102445483208D-07  .580000000000D+02
     .144000000000D+06  .400000000000D+01
17 23 11 27 18  0  0.0  .722779892385D-03 -.454747350886D-12  .000000000000D+00
     .750000000000D+02  .105343750000D+03  .434518099423D-08 -.189518671923D+01
     .569969415665D-05  .138343573781D-01  .528991222382D-06  .515362863922D+04
     .151200000000D+06  .111758708954D-06 -.199048415362D+01  .270083546638D-06
     .971502476395D+00  .379843750000D+03 -.137041769304D+01 -.822998566908D-08
     .145720355552D-09  .100000000000D+01  .229000000000D+04  .000000000000D+00
     .240000000000D+01  .000000000000D+00 -.111758708954D-07  .750000000000D+02
     .144000000000D+06  .400000000000D+01
28 23 11 27 18  0  0.0 -.560502521694D-04 -.909494701773D-11  .000000000000D+00
     .430000000000D+02 -.215937500000D+02  .492699094323D-08  .111105634990D+00
    -.970438122749D-06  .785109237768D-03  .669062137604D-05  .515378313255D+04
     .151200000000D+06  .447034835815D-07  .210343475067D+01  .186264514923D-08
     .961124358527D+00  .250468750000D+03  .156581452751D+01 -.807712215884D-08
    -.482877256633D-09  .100000000000D+01  .229000000000D+04  .000000000000D+00
     .240000000000D+01  .000000000000D+00 -.931322574615D-08  .299000000000D+03
     .144000000000D+06  .400000000000D+01
18 23 11 27 18  0  0.0 -.491048675030D-03 -.105728759081D-10  .000000000000D+00
     .225000000000D+03 -.111500000000D+03  .423160483476D-08  .228308605888D+01
    -.578537583351D-05  .383487646468D-02  .228546559811D-05  .515364480591D+04
     .151200000000D+06 -.745058059692D-08 -.985756851724D+00  .111758708954D-07
     .974318881892D+00  .344843750000D+03 -.303112394534D+01 -.812283834882D-08
    -.307869966877D-09  .100000000000D+01  .229000000000D+04  .000000000000D+00
     .240000000000D+01  .000000000000D+00 -.838190317154D-08  .225000000000D+03
     .144000000000D+06  .400000000000D+01
11 23 11 27 18  0  0.0 -.477939844131D-03 -.158024704433D-10  .000000000000D+00
     .130000000000D+02 -.135906250000D+03  .431696553323D-08 -.268119371402D+01
    -.689551234245D-05  .128983182367D-02  .228732824326D-05  .515363259506D+04
     .151200000000D+06 -.130385160446D-07 -.955278932871D+00  .353902578354D-07
     .965957503390D+00  .336750000000D+03 -.255636536471D+01 -.821962809479D-08
    -.257867884090D-09  .100000000000D+01  .229000000000D+04  .000000000000D+00
     .240000000000D+01  .000000000000D+00 -.838190317154D-08  .781000000000D+03
     .144000000000D+06  .400000000000D+01
23 23 11 27 18  0  0.0  .106164254248D-03  .659383658785D-11  .000000000000D+00
     .290000000000D+02 -.998750000000D+02  .379301513716D-08  .127714397175D+01
    -.519119203091D-05  .388499000110D-02  .105705112219D-04  .515369932365D+04
     .151200000000D+06 -.260770320892D-07  .139816859362D-01  .819563865662D-07
     .976957197594D+00  .185531250000D+03 -.303125110803D+01 -.751531304295D-08
     .248581783000D-09  .100000000000D+01  .229000000000D+04  .000000000000D+00
     .240000000000D+01  .000000000000D+00 -.838190317154D-08  .541000000000D+03
     .144000000000D+06  .400000000000D+01
14 23 11 27 18  0  0.0  .255217310041D-03  .106865627458D-10  .000000000000D+00
     .166000000000D+03  .108531250000D+03  .455697553061D-08  .784005427350D+00
     .562705099583D-05  .371691200417D-02  .107232481241D-04  .515368873978D+04
     .151200000000D+06  .335276126862D-07 -.307124898676D+01 -.223517417908D-07
     .947650208612D+00  .164156250000D+03 -.295527004835D+01 -.795318842508D-08
    -.380015829185D-09  .100000000000D+01  .229000000000D+04  .000000000000D+00
     .240000000000D+01  .000000000000D+00 -.791624188423D-08  .934000000000D+03
     .144000000000D+06  .400000000000D+01
29 23 11 27 19 59 44.0 -.610086601228D-03  .227373675443D-12  .000000000000D+00
     .170000000000D+02  .109156250000D+03  .439268297288D-08 -.962688697791D+00
     .556372106075D-05  .251813977957D-02  .120885670185D-05  .515368437195D+04
     .158384000000D+06 -.335276126862D-07 -.197598673201D+01 -.428408384323D-07
     .973833847014D+00  .362625000000D+03  .256858872113D+01 -.831784647169D-08
     .197508227010D-09  .100000000000D+01  .229000000000D+04  .000000000000D+00
     .240000000000D+01  .000000000000D+00 -.102445483208D-07  .170000000000D+02
     .151200000000D+06  .400000000000D+01
2  23 11 27 20  0  0.0 -.523238442838D-03  .511590769747D-11  .000000000000D+00
     .700000000000D+02 -.891562500000D+02  .442054127614D-08 -.400395125058D+00
    -.458583235741D-05  .162702029338D-01  .218674540520D-05  .515372554588D+04
     .158400000000D+06 -.299885869026D-06 -.108682006612D+01  .745058059692D-08
     .967470321605D+00  .343312500000D+03 -.130603543348D+01 -.850428280894D-08
    -.168935608275D-09  .100000000000D+01  .229000000000D+04  .000000000000D+00
     .240000000000D+01  .000000000000D+00 -.176951289177D-07  .700000000000D+02
     .151200000000D+06  .400000000000D+01
1  23 11 27 20  0  0.0  .163374934345D-03  .227373675443D-12  .000000000000D+00
     .240000000000D+02 -.114468750000D+03  .376408536069D-08 -.302468001941D+01
    -.581517815590D-05  .129740642151D-01  .244006514549D-05  .515402759361D+04
     .158400000000D+06  .763684511185D-07 -.984124009858D+00 -.165775418282D-06
     .990414092391D+00  .346375000000D+03  .100039288775D+01 -.774425115057D-08
    -.268225458381D-09  .100000000000D+01  .229000000000D+04  .000000000000D+00
     .240000000000D+01  .630000000000D+02  .512227416039D-08  .240000000000D+02
     .151200000000D+06  .400000000000D+01
